STARLINK-36599          
1 67638U 26020X   26058.73839947  .00107843  00000+0  65528-3 0  9992
2 67638  42.9998 201.9235 0001560 261.2741  98.7952 15.76420361  4526
STARLINK-36595          
1 67639U 26020Y   26058.75154041  .00188321  00000+0  11316-2 0  9995
2 67639  42.9986 202.0290 0001475 268.8974  91.1727 15.76413018  4521
STARLINK-36570          
1 67640U 26020Z   26059.09024107  .00336290  00000+0  19805-2 0  9995
2 67640  42.9978 200.2827 0000548 281.2460  78.8348 15.76441889  4572
STARLINK-36514          
1 67641U 26020AA  26058.79957274  .00169045  00000+0  10181-2 0  9992
2 67641  42.9990 201.5202 0001674 266.0129  94.0549 15.76419604  4531
STARLINK-36556          
1 67642U 26020AB  26058.82584539  .00219262  00000+0  13114-2 0  9993
2 67642  42.9991 201.7324 0001338 267.4029  92.6687 15.76427035  4535
STARLINK-36533          
1 67643U 26020AC  26059.09242870  .00342721  00000+0  20067-2 0  9995
2 67643  42.9991 200.2994 0001486 303.1422  56.9305 15.76557024  4578
STARLINK-36623          
1 67644U 26020AD  26059.08585852  .00285895  00000+0  16935-2 0  9992
2 67644  42.9989 200.2453 0001103 296.5718  63.5038 15.76454414  4571
STARLINK-36619          
1 67645U 26020AE  26059.08367784  .00371184  00000+0  21748-2 0  9990
2 67645  42.9982 200.2284 0001634  49.0663 311.0348 15.76462205  4578
ALSAT-3B                
1 67646U 26021A   26059.18974345  .00007296  00000+0  30533-3 0  9993
2 67646  97.4691 133.5689 0013180 163.0006 197.1675 15.23789129  4277
CZ-2C R/B               
1 67647U 26021B   26059.12738197  .00012702  00000+0  38179-3 0  9993
2 67647  97.6532 134.4080 0152210  44.5918 316.7445 15.23808035  4241
STARLINK-36719          
1 67648U 26022A   26059.07001476  .00111880  00000+0  74016-3 0  9999
2 67648  97.2839  92.5585 0001035  51.6661 308.4697 15.75221990  4034
STARLINK-36342          
1 67649U 26022B   26059.06930889  .00271768  00000+0  17659-2 0  9999
2 67649  97.2833  92.5589 0002813 125.0014 235.1515 15.75184479  4031
