CCSDS_OMM_VERS = 2.0
CREATION_DATE  = 
ORIGINATOR     = 

OBJECT_NAME    = STARLINK-36599
OBJECT_ID      = 2026-020X
CENTER_NAME    = EARTH
REF_FRAME      = TEME
TIME_SYSTEM    = UTC
MEAN_ELEMENT_THEORY = SGP/SGP4

EPOCH          = 2026-02-27T17:43:17.714208
MEAN_MOTION    = 15.76420361
ECCENTRICITY   = .00015605
INCLINATION    = 42.9998
RA_OF_ASC_NODE = 201.9235
ARG_OF_PERICENTER = 261.2741
MEAN_ANOMALY   = 98.7952

EPHEMERIS_TYPE = 0
CLASSIFICATION_TYPE = U
NORAD_CAT_ID   = 67638
ELEMENT_SET_NO = 999
REV_AT_EPOCH   = 452
BSTAR          = .65527923E-3
MEAN_MOTION_DOT = .107843E-2
MEAN_MOTION_DDOT = 0

CCSDS_OMM_VERS = 2.0
CREATION_DATE  = 
ORIGINATOR     = 

OBJECT_NAME    = STARLINK-36595
OBJECT_ID      = 2026-020Y
CENTER_NAME    = EARTH
REF_FRAME      = TEME
TIME_SYSTEM    = UTC
MEAN_ELEMENT_THEORY = SGP/SGP4

EPOCH          = 2026-02-27T18:02:13.091424
MEAN_MOTION    = 15.76413018
ECCENTRICITY   = .00014759
INCLINATION    = 42.9986
RA_OF_ASC_NODE = 202.0290
ARG_OF_PERICENTER = 268.8974
MEAN_ANOMALY   = 91.1727

EPHEMERIS_TYPE = 0
CLASSIFICATION_TYPE = U
NORAD_CAT_ID   = 67639
ELEMENT_SET_NO = 999
REV_AT_EPOCH   = 452
BSTAR          = .11316049E-2
MEAN_MOTION_DOT = .188321E-2
MEAN_MOTION_DDOT = 0

CCSDS_OMM_VERS = 2.0
CREATION_DATE  = 
ORIGINATOR     = 

OBJECT_NAME    = STARLINK-36570
OBJECT_ID      = 2026-020Z
CENTER_NAME    = EARTH
REF_FRAME      = TEME
TIME_SYSTEM    = UTC
MEAN_ELEMENT_THEORY = SGP/SGP4

EPOCH          = 2026-02-28T02:09:56.828448
MEAN_MOTION    = 15.76441889
ECCENTRICITY   = .0000548
INCLINATION    = 42.9978
RA_OF_ASC_NODE = 200.2827
ARG_OF_PERICENTER = 281.2460
MEAN_ANOMALY   = 78.8348

EPHEMERIS_TYPE = 0
CLASSIFICATION_TYPE = U
NORAD_CAT_ID   = 67640
ELEMENT_SET_NO = 999
REV_AT_EPOCH   = 457
BSTAR          = .19805E-2
MEAN_MOTION_DOT = .33629E-2
MEAN_MOTION_DDOT = 0

CCSDS_OMM_VERS = 2.0
CREATION_DATE  = 
ORIGINATOR     = 

OBJECT_NAME    = STARLINK-36514
OBJECT_ID      = 2026-020AA
CENTER_NAME    = EARTH
REF_FRAME      = TEME
TIME_SYSTEM    = UTC
MEAN_ELEMENT_THEORY = SGP/SGP4

EPOCH          = 2026-02-27T19:11:23.084736
MEAN_MOTION    = 15.76419604
ECCENTRICITY   = .00016743
INCLINATION    = 42.9990
RA_OF_ASC_NODE = 201.5202
ARG_OF_PERICENTER = 266.0129
MEAN_ANOMALY   = 94.0549

EPHEMERIS_TYPE = 0
CLASSIFICATION_TYPE = U
NORAD_CAT_ID   = 67641
ELEMENT_SET_NO = 999
REV_AT_EPOCH   = 453
BSTAR          = .10180998E-2
MEAN_MOTION_DOT = .169045E-2
MEAN_MOTION_DDOT = 0

CCSDS_OMM_VERS = 2.0
CREATION_DATE  = 
ORIGINATOR     = 

OBJECT_NAME    = STARLINK-36556
OBJECT_ID      = 2026-020AB
CENTER_NAME    = EARTH
REF_FRAME      = TEME
TIME_SYSTEM    = UTC
MEAN_ELEMENT_THEORY = SGP/SGP4

EPOCH          = 2026-02-27T19:49:13.041696
MEAN_MOTION    = 15.76427035
ECCENTRICITY   = .0001338
INCLINATION    = 42.9991
RA_OF_ASC_NODE = 201.7324
ARG_OF_PERICENTER = 267.4029
MEAN_ANOMALY   = 92.6687

EPHEMERIS_TYPE = 0
CLASSIFICATION_TYPE = U
NORAD_CAT_ID   = 67642
ELEMENT_SET_NO = 999
REV_AT_EPOCH   = 453
BSTAR          = .13114E-2
MEAN_MOTION_DOT = .219262E-2
MEAN_MOTION_DDOT = 0

CCSDS_OMM_VERS = 2.0
CREATION_DATE  = 
ORIGINATOR     = 

OBJECT_NAME    = STARLINK-36533
OBJECT_ID      = 2026-020AC
CENTER_NAME    = EARTH
REF_FRAME      = TEME
TIME_SYSTEM    = UTC
MEAN_ELEMENT_THEORY = SGP/SGP4

EPOCH          = 2026-02-28T02:13:05.839680
MEAN_MOTION    = 15.76557024
ECCENTRICITY   = .0001486
INCLINATION    = 42.9991
RA_OF_ASC_NODE = 200.2994
ARG_OF_PERICENTER = 303.1422
MEAN_ANOMALY   = 56.9305

EPHEMERIS_TYPE = 0
CLASSIFICATION_TYPE = U
NORAD_CAT_ID   = 67643
ELEMENT_SET_NO = 999
REV_AT_EPOCH   = 457
BSTAR          = .20067E-2
MEAN_MOTION_DOT = .342721E-2
MEAN_MOTION_DDOT = 0

CCSDS_OMM_VERS = 2.0
CREATION_DATE  = 
ORIGINATOR     = 

OBJECT_NAME    = STARLINK-36623
OBJECT_ID      = 2026-020AD
CENTER_NAME    = EARTH
REF_FRAME      = TEME
TIME_SYSTEM    = UTC
MEAN_ELEMENT_THEORY = SGP/SGP4

EPOCH          = 2026-02-28T02:03:38.176128
MEAN_MOTION    = 15.76454414
ECCENTRICITY   = .0001103
INCLINATION    = 42.9989
RA_OF_ASC_NODE = 200.2453
ARG_OF_PERICENTER = 296.5718
MEAN_ANOMALY   = 63.5038

EPHEMERIS_TYPE = 0
CLASSIFICATION_TYPE = U
NORAD_CAT_ID   = 67644
ELEMENT_SET_NO = 999
REV_AT_EPOCH   = 457
BSTAR          = .16935E-2
MEAN_MOTION_DOT = .285895E-2
MEAN_MOTION_DDOT = 0

CCSDS_OMM_VERS = 2.0
CREATION_DATE  = 
ORIGINATOR     = 

OBJECT_NAME    = STARLINK-36619
OBJECT_ID      = 2026-020AE
CENTER_NAME    = EARTH
REF_FRAME      = TEME
TIME_SYSTEM    = UTC
MEAN_ELEMENT_THEORY = SGP/SGP4

EPOCH          = 2026-02-28T02:00:29.765376
MEAN_MOTION    = 15.76462205
ECCENTRICITY   = .0001634
INCLINATION    = 42.9982
RA_OF_ASC_NODE = 200.2284
ARG_OF_PERICENTER = 49.0663
MEAN_ANOMALY   = 311.0348

EPHEMERIS_TYPE = 0
CLASSIFICATION_TYPE = U
NORAD_CAT_ID   = 67645
ELEMENT_SET_NO = 999
REV_AT_EPOCH   = 457
BSTAR          = .21748E-2
MEAN_MOTION_DOT = .371184E-2
MEAN_MOTION_DDOT = 0

CCSDS_OMM_VERS = 2.0
CREATION_DATE  = 
ORIGINATOR     = 

OBJECT_NAME    = ALSAT-3B
OBJECT_ID      = 2026-021A
CENTER_NAME    = EARTH
REF_FRAME      = TEME
TIME_SYSTEM    = UTC
MEAN_ELEMENT_THEORY = SGP/SGP4

EPOCH          = 2026-02-28T04:33:13.834080
MEAN_MOTION    = 15.23789129
ECCENTRICITY   = .001318
INCLINATION    = 97.4691
RA_OF_ASC_NODE = 133.5689
ARG_OF_PERICENTER = 163.0006
MEAN_ANOMALY   = 197.1675

EPHEMERIS_TYPE = 0
CLASSIFICATION_TYPE = U
NORAD_CAT_ID   = 67646
ELEMENT_SET_NO = 999
REV_AT_EPOCH   = 427
BSTAR          = .30533E-3
MEAN_MOTION_DOT = .7296E-4
MEAN_MOTION_DDOT = 0

CCSDS_OMM_VERS = 2.0
CREATION_DATE  = 
ORIGINATOR     = 

OBJECT_NAME    = CZ-2C R/B
OBJECT_ID      = 2026-021B
CENTER_NAME    = EARTH
REF_FRAME      = TEME
TIME_SYSTEM    = UTC
MEAN_ELEMENT_THEORY = SGP/SGP4

EPOCH          = 2026-02-28T03:03:25.802208
MEAN_MOTION    = 15.23808035
ECCENTRICITY   = .015221
INCLINATION    = 97.6532
RA_OF_ASC_NODE = 134.4080
ARG_OF_PERICENTER = 44.5918
MEAN_ANOMALY   = 316.7445

EPHEMERIS_TYPE = 0
CLASSIFICATION_TYPE = U
NORAD_CAT_ID   = 67647
ELEMENT_SET_NO = 999
REV_AT_EPOCH   = 424
BSTAR          = .38179E-3
MEAN_MOTION_DOT = .12702E-3
MEAN_MOTION_DDOT = 0

CCSDS_OMM_VERS = 2.0
CREATION_DATE  = 
ORIGINATOR     = 

OBJECT_NAME    = STARLINK-36719
OBJECT_ID      = 2026-022A
CENTER_NAME    = EARTH
REF_FRAME      = TEME
TIME_SYSTEM    = UTC
MEAN_ELEMENT_THEORY = SGP/SGP4

EPOCH          = 2026-02-28T01:40:49.275264
MEAN_MOTION    = 15.75221990
ECCENTRICITY   = .0001035
INCLINATION    = 97.2839
RA_OF_ASC_NODE = 92.5585
ARG_OF_PERICENTER = 51.6661
MEAN_ANOMALY   = 308.4697

EPHEMERIS_TYPE = 0
CLASSIFICATION_TYPE = U
NORAD_CAT_ID   = 67648
ELEMENT_SET_NO = 999
REV_AT_EPOCH   = 403
BSTAR          = .74016E-3
MEAN_MOTION_DOT = .11188E-2
MEAN_MOTION_DDOT = 0

CCSDS_OMM_VERS = 2.0
CREATION_DATE  = 
ORIGINATOR     = 

OBJECT_NAME    = STARLINK-36342
OBJECT_ID      = 2026-022B
CENTER_NAME    = EARTH
REF_FRAME      = TEME
TIME_SYSTEM    = UTC
MEAN_ELEMENT_THEORY = SGP/SGP4

EPOCH          = 2026-02-28T01:39:48.288096
MEAN_MOTION    = 15.75184479
ECCENTRICITY   = .0002813
INCLINATION    = 97.2833
RA_OF_ASC_NODE = 92.5589
ARG_OF_PERICENTER = 125.0014
MEAN_ANOMALY   = 235.1515

EPHEMERIS_TYPE = 0
CLASSIFICATION_TYPE = U
NORAD_CAT_ID   = 67649
ELEMENT_SET_NO = 999
REV_AT_EPOCH   = 403
BSTAR          = .17659E-2
MEAN_MOTION_DOT = .271768E-2
MEAN_MOTION_DDOT = 0

